[{"OBJECT_NAME":"SHIYAN-6 01 (SY-6 01)","OBJECT_ID":"2018-094B","EPOCH":"2026-03-09T23:04:36.967872","MEAN_MOTION":15.28649156,"ECCENTRICITY":0.00144834,"INCLINATION":97.3669,"RA_OF_ASC_NODE":84.0964,"ARG_OF_PERICENTER":135.6758,"MEAN_ANOMALY":224.5644,"EPHEMERIS_TYPE":0,"CLASSIFICATION_TYPE":"U","NORAD_CAT_ID":43711,"ELEMENT_SET_NO":999,"REV_AT_EPOCH":40632,"BSTAR":0.00024768444,"MEAN_MOTION_DOT":6.847e-5,"MEAN_MOTION_DDOT":0},{"OBJECT_NAME":"STARLINK-35033","OBJECT_ID":"2025-195L","EPOCH":"2026-03-09T17:26:14.081568","MEAN_MOTION":15.30198377,"ECCENTRICITY":0.00010424,"INCLINATION":53.1592,"RA_OF_ASC_NODE":257.6971,"ARG_OF_PERICENTER":113.8761,"MEAN_ANOMALY":246.2349,"EPHEMERIS_TYPE":0,"CLASSIFICATION_TYPE":"U","NORAD_CAT_ID":65468,"ELEMENT_SET_NO":999,"REV_AT_EPOCH":3000,"BSTAR":0.00045136319,"MEAN_MOTION_DOT":0.00013032,"MEAN_MOTION_DDOT":0}]
